{"type": "FeatureCollection", "features": [ {"type": "Feature", "properties": {"norad_id": 66745, "name": "TRANSPORTER-15 CH", "group": "last-30-days", "lat": 43.503807324891355, "lon": -106.63447981637916, "alt_km": 510.1429421641842, "timestamp": "2025-12-20T14:38:00.689004+00:00", "meta": {"OBJECT_NAME": "TRANSPORTER-15 CH", "OBJECT_ID": "2025-276CH", "EPOCH": "2025-12-18T03:28:42.797856", "MEAN_MOTION": 15.17410402, "ECCENTRICITY": 8.886e-05, "INCLINATION": 97.4425, "RA_OF_ASC_NODE": 63.8169, "ARG_OF_PERICENTER": 243.2573, "MEAN_ANOMALY": 116.857, "EPHEMERIS_TYPE": 0, "CLASSIFICATION_TYPE": "U", "NORAD_CAT_ID": 66745, "ELEMENT_SET_NO": 999, "REV_AT_EPOCH": 294, "BSTAR": 0.00015034976, "MEAN_MOTION_DOT": 2.939e-05, "MEAN_MOTION_DDOT": 0}, "tle": {"line1": "1 66745U 25276CH  25352.14493979  .00002939  00000+0  15035-3 0  9992", "line2": "2 66745  97.4425  63.8169 0000888 243.2573 116.8570 15.17410402  2942"}}, "geometry": {"type": "Point", "coordinates": [-106.63447981637916, 43.503807324891355]}}, {"type": "Feature", "properties": {"norad_id": 66746, "name": "TRANSPORTER-15 CJ", "group": "last-30-days", "lat": 43.50494270320798, "lon": -106.63459168504328, "alt_km": 510.0895579172966, "timestamp": "2025-12-20T14:38:00.689018+00:00", "meta": {"OBJECT_NAME": "TRANSPORTER-15 CJ", "OBJECT_ID": "2025-276CJ", "EPOCH": "2025-12-19T04:48:03.204576", "MEAN_MOTION": 15.17416472, "ECCENTRICITY": 9.628e-05, "INCLINATION": 97.4422, "RA_OF_ASC_NODE": 64.8535, "ARG_OF_PERICENTER": 234.0891, "MEAN_ANOMALY": 126.0254, "EPHEMERIS_TYPE": 0, "CLASSIFICATION_TYPE": "U", "NORAD_CAT_ID": 66746, "ELEMENT_SET_NO": 999, "REV_AT_EPOCH": 310, "BSTAR": 0.00013979791, "MEAN_MOTION_DOT": 2.728e-05, "MEAN_MOTION_DDOT": 0}, "tle": {"line1": "1 66746U 25276CJ  25353.20003709  .00002728  00000+0  13980-3 0  9992", "line2": "2 66746  97.4422  64.8535 0000962 234.0891 126.0254 15.17416472  3106"}}, "geometry": {"type": "Point", "coordinates": [-106.63459168504328, 43.50494270320798]}}, {"type": "Feature", "properties": {"norad_id": 66747, "name": "TRANSPORTER-15 CK", "group": "last-30-days", "lat": 36.64625064536196, "lon": -108.17711932921816, "alt_km": 510.62761653871894, "timestamp": "2025-12-20T14:38:00.689028+00:00", "meta": {"OBJECT_NAME": "TRANSPORTER-15 CK", "OBJECT_ID": "2025-276CK", "EPOCH": "2025-12-20T04:30:38.220768", "MEAN_MOTION": 15.17521943, "ECCENTRICITY": 0.00011247, "INCLINATION": 97.4423, "RA_OF_ASC_NODE": 65.8279, "ARG_OF_PERICENTER": 221.182, "MEAN_ANOMALY": 138.9329, "EPHEMERIS_TYPE": 0, "CLASSIFICATION_TYPE": "U", "NORAD_CAT_ID": 66747, "ELEMENT_SET_NO": 999, "REV_AT_EPOCH": 325, "BSTAR": 0.00025199968, "MEAN_MOTION_DOT": 4.988e-05, "MEAN_MOTION_DDOT": 0}, "tle": {"line1": "1 66747U 25276CK  25354.18794237  .00004988  00000+0  25200-3 0  9992", "line2": "2 66747  97.4423  65.8279 0001124 221.1820 138.9329 15.17521943  3255"}}, "geometry": {"type": "Point", "coordinates": [-108.17711932921816, 36.64625064536196]}}, {"type": "Feature", "properties": {"norad_id": 66748, "name": "TRANSPORTER-15 CL", "group": "last-30-days", "lat": -2.908701081247266, "lon": -114.12317354806027, "alt_km": 513.2833938130043, "timestamp": "2025-12-20T14:38:00.689040+00:00", "meta": {"OBJECT_NAME": "TRANSPORTER-15 CL", "OBJECT_ID": "2025-276CL", "EPOCH": "2025-12-20T04:20:27.828096", "MEAN_MOTION": 15.18396095, "ECCENTRICITY": 0.00018291, "INCLINATION": 97.4417, "RA_OF_ASC_NODE": 65.8354, "ARG_OF_PERICENTER": 233.0535, "MEAN_ANOMALY": 127.0532, "EPHEMERIS_TYPE": 0, "CLASSIFICATION_TYPE": "U", "NORAD_CAT_ID": 66748, "ELEMENT_SET_NO": 999, "REV_AT_EPOCH": 325, "BSTAR": 0.00058725082, "MEAN_MOTION_DOT": 0.0001202, "MEAN_MOTION_DDOT": 0}, "tle": {"line1": "1 66748U 25276CL  25354.18087764  .00012020  00000+0  58725-3 0  9997", "line2": "2 66748  97.4417  65.8354 0001829 233.0535 127.0532 15.18396095  3254"}}, "geometry": {"type": "Point", "coordinates": [-114.12317354806027, -2.908701081247266]}}, {"type": "Feature", "properties": {"norad_id": 66749, "name": "TRANSPORTER-15 CM", "group": "last-30-days", "lat": 16.68820811064304, "lon": -111.50812227195496, "alt_km": 512.1358502590083, "timestamp": "2025-12-20T14:38:00.689050+00:00", "meta": {"OBJECT_NAME": "TRANSPORTER-15 CM", "OBJECT_ID": "2025-276CM", "EPOCH": "2025-12-20T04:25:26.971680", "MEAN_MOTION": 15.17836732, "ECCENTRICITY": 0.00016128, "INCLINATION": 97.4411, "RA_OF_ASC_NODE": 65.8282, "ARG_OF_PERICENTER": 199.8853, "MEAN_ANOMALY": 160.2318, "EPHEMERIS_TYPE": 0, "CLASSIFICATION_TYPE": "U", "NORAD_CAT_ID": 66749, "ELEMENT_SET_NO": 999, "REV_AT_EPOCH": 325, "BSTAR": 0.00024445657, "MEAN_MOTION_DOT": 4.88e-05, "MEAN_MOTION_DDOT": 0}, "tle": {"line1": "1 66749U 25276CM  25354.18433995  .00004880  00000+0  24446-3 0  9997", "line2": "2 66749  97.4411  65.8282 0001612 199.8853 160.2318 15.17836732  3258"}}, "geometry": {"type": "Point", "coordinates": [-111.50812227195496, 16.68820811064304]}}, {"type": "Feature", "properties": {"norad_id": 66750, "name": "TRANSPORTER-15 CN", "group": "last-30-days", "lat": 1.167435664616378, "lon": -113.58057113656358, "alt_km": 513.5947190162506, "timestamp": "2025-12-20T14:38:00.689062+00:00", "meta": {"OBJECT_NAME": "TRANSPORTER-15 CN", "OBJECT_ID": "2025-276CN", "EPOCH": "2025-12-20T04:21:23.936256", "MEAN_MOTION": 15.18002319, "ECCENTRICITY": 0.00018929, "INCLINATION": 97.4451, "RA_OF_ASC_NODE": 65.8455, "ARG_OF_PERICENTER": 157.8879, "MEAN_ANOMALY": 202.2437, "EPHEMERIS_TYPE": 0, "CLASSIFICATION_TYPE": "U", "NORAD_CAT_ID": 66750, "ELEMENT_SET_NO": 999, "REV_AT_EPOCH": 325, "BSTAR": 0.00019004893, "MEAN_MOTION_DOT": 3.797e-05, "MEAN_MOTION_DDOT": 0}, "tle": {"line1": "1 66750U 25276CN  25354.18152704  .00003797  00000+0  19005-3 0  9996", "line2": "2 66750  97.4451  65.8455 0001892 157.8879 202.2437 15.18002319  3254"}}, "geometry": {"type": "Point", "coordinates": [-113.58057113656358, 1.167435664616378]}}, {"type": "Feature", "properties": {"norad_id": 66751, "name": "TRANSPORTER-15 CP", "group": "last-30-days", "lat": 18.018137857318123, "lon": -111.30951586770274, "alt_km": 512.1752392823, "timestamp": "2025-12-20T14:38:00.689072+00:00", "meta": {"OBJECT_NAME": "TRANSPORTER-15 CP", "OBJECT_ID": "2025-276CP", "EPOCH": "2025-12-20T04:25:46.556832", "MEAN_MOTION": 15.17780146, "ECCENTRICITY": 0.00020933, "INCLINATION": 97.4424, "RA_OF_ASC_NODE": 65.8356, "ARG_OF_PERICENTER": 218.1442, "MEAN_ANOMALY": 141.9644, "EPHEMERIS_TYPE": 0, "CLASSIFICATION_TYPE": "U", "NORAD_CAT_ID": 66751, "ELEMENT_SET_NO": 999, "REV_AT_EPOCH": 325, "BSTAR": 0.00027776132, "MEAN_MOTION_DOT": 5.546e-05, "MEAN_MOTION_DDOT": 0}, "tle": {"line1": "1 66751U 25276CP  25354.18456663  .00005546  00000+0  27776-3 0  9996", "line2": "2 66751  97.4424  65.8356 0002093 218.1442 141.9644 15.17780146  3255"}}, "geometry": {"type": "Point", "coordinates": [-111.30951586770274, 18.018137857318123]}}, {"type": "Feature", "properties": {"norad_id": 66752, "name": "TRANSPORTER-15 CQ", "group": "last-30-days", "lat": 32.876925507023444, "lon": -108.90630205440252, "alt_km": 511.55383901285313, "timestamp": "2025-12-20T14:38:00.689082+00:00", "meta": {"OBJECT_NAME": "TRANSPORTER-15 CQ", "OBJECT_ID": "2025-276CQ", "EPOCH": "2025-12-20T04:29:39.137856", "MEAN_MOTION": 15.17584846, "ECCENTRICITY": 0.00017268, "INCLINATION": 97.4418, "RA_OF_ASC_NODE": 65.8321, "ARG_OF_PERICENTER": 254.795, "MEAN_ANOMALY": 105.3093, "EPHEMERIS_TYPE": 0, "CLASSIFICATION_TYPE": "U", "NORAD_CAT_ID": 66752, "ELEMENT_SET_NO": 999, "REV_AT_EPOCH": 325, "BSTAR": 0.0002711098, "MEAN_MOTION_DOT": 5.381e-05, "MEAN_MOTION_DDOT": 0}, "tle": {"line1": "1 66752U 25276CQ  25354.18725854  .00005381  00000+0  27111-3 0  9998", "line2": "2 66752  97.4418  65.8321 0001726 254.7950 105.3093 15.17584846  3254"}}, "geometry": {"type": "Point", "coordinates": [-108.90630205440252, 32.876925507023444]}}, {"type": "Feature", "properties": {"norad_id": 66753, "name": "TRANSPORTER-15 CR", "group": "last-30-days", "lat": 51.26172807207941, "lon": -104.38652427430826, "alt_km": 509.84329948268714, "timestamp": "2025-12-20T14:38:00.689094+00:00", "meta": {"OBJECT_NAME": "TRANSPORTER-15 CR", "OBJECT_ID": "2025-276CR", "EPOCH": "2025-12-20T00:00:02.000160", "MEAN_MOTION": 15.17342416, "ECCENTRICITY": 0.0001085, "INCLINATION": 97.4422, "RA_OF_ASC_NODE": 65.637, "ARG_OF_PERICENTER": 301.9192, "MEAN_ANOMALY": 97.7451, "EPHEMERIS_TYPE": 0, "CLASSIFICATION_TYPE": "U", "NORAD_CAT_ID": 66753, "ELEMENT_SET_NO": 999, "REV_AT_EPOCH": 439, "BSTAR": 0.0011885942, "MEAN_MOTION_DOT": 0.00023708, "MEAN_MOTION_DDOT": 0}, "tle": {"line1": "1 66753U 25276CR  25354.00002315  .00023708  00000+0  11886-2 0  9994", "line2": "2 66753  97.4422  65.6370 0001085 301.9192  97.7451 15.17342416  4396"}}, "geometry": {"type": "Point", "coordinates": [-104.38652427430826, 51.26172807207941]}}, {"type": "Feature", "properties": {"norad_id": 66754, "name": "TRANSPORTER-15 CS", "group": "last-30-days", "lat": 13.664330659218269, "lon": -111.9284064627728, "alt_km": 512.4418995929109, "timestamp": "2025-12-20T14:38:00.689105+00:00", "meta": {"OBJECT_NAME": "TRANSPORTER-15 CS", "OBJECT_ID": "2025-276CS", "EPOCH": "2025-12-20T04:24:38.298240", "MEAN_MOTION": 15.17823742, "ECCENTRICITY": 0.00020068, "INCLINATION": 97.4416, "RA_OF_ASC_NODE": 65.8319, "ARG_OF_PERICENTER": 204.1782, "MEAN_ANOMALY": 155.9358, "EPHEMERIS_TYPE": 0, "CLASSIFICATION_TYPE": "U", "NORAD_CAT_ID": 66754, "ELEMENT_SET_NO": 999, "REV_AT_EPOCH": 325, "BSTAR": 0.00015596102, "MEAN_MOTION_DOT": 3.088e-05, "MEAN_MOTION_DDOT": 0}, "tle": {"line1": "1 66754U 25276CS  25354.18377660  .00003088  00000+0  15596-3 0  9994", "line2": "2 66754  97.4416  65.8319 0002006 204.1782 155.9358 15.17823742  3251"}}, "geometry": {"type": "Point", "coordinates": [-111.9284064627728, 13.664330659218269]}}]}